STARLINK-4373           
1 53219U 22084AG  26157.61979874 -.00000173  00000+0 -80171-5 0  9992
2 53219  97.3956 218.1908 0001367 107.9918 252.1459 15.05650174212762
STARLINK-4363           
1 53220U 22084AH  26157.85104916 -.00001066  00000+0 -69822-4 0  9998
2 53220  97.3988 217.2840 0003350 169.4819 190.6479 15.05659772213246
STARLINK-4377           
1 53221U 22084AJ  26157.87875027 -.00001680  00000+0 -11242-3 0  9993
2 53221  97.3913 217.3830 0003092  90.8636 269.2945 15.05655721212736
STARLINK-4356           
1 53224U 22084AM  26157.65443862  .00000692  00000+0  51970-4 0  9993
2 53224  97.4003 217.0845 0001367 148.7322 211.3987 15.05655471212692
STARLINK-4358           
1 53225U 22084AN  26157.62256464  .00000388  00000+0  30926-4 0  9991
2 53225  97.3964 218.1700 0001687 101.1801 258.9616 15.05653736212766
STARLINK-4359           
1 53226U 22084AP  26157.63782579  .00000872  00000+0  64463-4 0  9995
2 53226  97.3970 217.0975 0002141 143.1834 216.9541 15.05654693212690
STARLINK-4366           
1 53227U 22084AQ  26157.66964190  .00000064  00000+0  84319-5 0  9996
2 53227  97.3935 218.2349 0001387  83.7869 276.3516 15.05656161212771
STARLINK-4365           
1 53228U 22084AR  26157.86213046 -.00004279  00000+0 -29255-3 0  9996
2 53228  97.3951 217.3960 0001314 113.4991 246.6375 15.05676437212733
STARLINK-4367           
1 53229U 22084AS  26157.60872198  .00000250  00000+0  21367-4 0  9998
2 53229  97.3978 218.1805 0002080 107.5213 252.6242 15.05652661212768
STARLINK-4364           
1 53230U 22084AT  26157.85240357 -.00004561  00000+0 -31202-3 0  9992
2 53230  97.3985 218.4680 0000964  95.9769 264.1568 15.05681221212805
STARLINK-4370           
1 53231U 22084AU  26157.92993801 -.00000401  00000+0 -23777-4 0  9998
2 53231  97.3961 218.5048 0000606  97.5078 262.6219 15.05658587212819
STARLINK-4371           
1 53232U 22084AV  26157.63505664  .00000763  00000+0  56886-4 0  9999
2 53232  97.3965 217.0812 0002049 160.6524 199.4782 15.05650970212694
STARLINK-4372           
1 53233U 22084AW  26157.95899944  .00001976  00000+0  14065-3 0  9991
2 53233  97.3951 217.3977 0000852  99.1896 260.9428 15.05713116212742
STARLINK-4368           
1 53234U 22084AX  26157.91670139  .00069221  00000+0  20012-2 0  9996
2 53234  97.5990 219.0024 0001330 112.6564 185.3012 15.35372409  5811
STARLINK-4056           
1 53242U 22086A   26157.73034043 -.00002995  00000+0 -17037-3 0  9996
2 53242  53.1793 159.3518 0001309 123.4708 236.6409 15.08790012214758
STARLINK-4047           
1 53243U 22086B   26157.30477426  .00001842  00000+0  13381-3 0  9992
2 53243  53.1734 165.9717 0001264 100.4172 259.6963 15.08835299214643
STARLINK-4125           
1 53244U 22086C   26157.72801050  .00003803  00000+0  25710-3 0  9991
2 53244  53.1722 164.4576 0001274  98.2658 261.8478 15.08806537214685
STARLINK-4131           
1 53246U 22086E   26157.72432356  .00000112  00000+0  25120-4 0  9998
2 53246  53.1717 164.3956 0001195  69.7925 290.3195 15.08831238213570
STARLINK-4061           
1 53247U 22086F   26157.74500830  .00012860  00000+0  82527-3 0  9990
2 53247  53.1762 159.4826 0000273 351.1925   8.9062 15.08807689214756
STARLINK-4135           
1 53248U 22086G   26157.73398569  .00001212  00000+0  94211-4 0  9997
2 53248  53.1792 159.4492 0000772 122.4422 237.6645 15.08843909214757
STARLINK-4128           
1 53249U 22086H   26157.53851522  .00000334  00000+0  39064-4 0  9998
2 53249  53.1737 155.2397 0000993  70.4397 289.6701 15.08838359214497
STARLINK-4059           
1 53250U 22086J   26157.27627554 -.00000568  00000+0 -17610-4 0  9991
2 53250  53.1761 156.4096 0001152  90.0587 270.0537 15.08830903214445
STARLINK-4129           
1 53251U 22086K   26157.72894192 -.00017705  00000+0 -10965-2 0  9991
2 53251  53.1753 154.3746 0000877  91.7297 268.3795 15.08857363214507
STARLINK-4132           
1 53252U 22086L   26157.60011363 -.00000761  00000+0 -29754-4 0  9992
2 53252  53.1715 154.9055 0001093  71.5542 288.5568 15.08844039214503
STARLINK-4133           
1 53253U 22086M   26157.72524123 -.00000437  00000+0 -93633-5 0  9997
2 53253  53.1739 154.3908 0001269  84.6926 275.4210 15.08836775214504
STARLINK-4134           
1 53254U 22086N   26157.26987661  .00000216  00000+0  31660-4 0  9991
2 53254  53.1750 156.4470 0001346  84.7323 275.3822 15.08835756214453
STARLINK-4142           
1 53255U 22086P   26157.71788471  .00007083  00000+0  46276-3 0  9997
2 53255  53.1742 154.4244 0001523  69.7689 290.3466 15.08832155214504
STARLINK-4147           
1 53256U 22086Q   26157.72156400  .00004386  00000+0  29363-3 0  9991
2 53256  53.1741 154.4069 0001143  80.7768 279.3353 15.08818348214508
STARLINK-4144           
1 53257U 22086R   26157.70683403 -.00001183  00000+0 -56217-4 0  9991
2 53257  53.1797 154.4770 0001162  89.6505 270.4619 15.08843873214505
STARLINK-4127           
1 53258U 22086S   26157.71419827  .00000644  00000+0  58526-4 0  9994
2 53258  53.1792 154.4343 0001166  78.3508 281.7615 15.08839584214504
