OBJECT_NAME,OBJECT_ID,EPOCH,MEAN_MOTION,ECCENTRICITY,INCLINATION,RA_OF_ASC_NODE,ARG_OF_PERICENTER,MEAN_ANOMALY,EPHEMERIS_TYPE,CLASSIFICATION_TYPE,NORAD_CAT_ID,ELEMENT_SET_NO,REV_AT_EPOCH,BSTAR,MEAN_MOTION_DOT,MEAN_MOTION_DDOT
STARLINK-4373,2022-084AG,2026-06-06T14:52:30.611136,15.05650174,.0001367,97.3956,218.1908,107.9918,252.1459,0,U,53219,999,21276,-.8017129E-5,-.173E-5,0
STARLINK-4363,2022-084AH,2026-06-06T20:25:30.647424,15.05659772,.00033503,97.3988,217.2840,169.4819,190.6479,0,U,53220,999,21324,-.69821588E-4,-.1066E-4,0
STARLINK-4377,2022-084AJ,2026-06-06T21:05:24.023328,15.05655721,.00030922,97.3913,217.3830,90.8636,269.2945,0,U,53221,999,21273,-.11241585E-3,-.168E-4,0
STARLINK-4356,2022-084AM,2026-06-06T15:42:23.496768,15.05655471,.00013677,97.4003,217.0845,148.7322,211.3987,0,U,53224,999,21269,.51970438E-4,.692E-5,0
STARLINK-4358,2022-084AN,2026-06-06T14:56:29.584896,15.05653736,.00016878,97.3964,218.1700,101.1801,258.9616,0,U,53225,999,21276,.30925728E-4,.388E-5,0
STARLINK-4359,2022-084AP,2026-06-06T15:18:28.148256,15.05654693,.00021415,97.3970,217.0975,143.1834,216.9541,0,U,53226,999,21269,.64462891E-4,.872E-5,0
STARLINK-4366,2022-084AQ,2026-06-06T16:04:17.060160,15.05656161,.00013877,97.3935,218.2349,83.7869,276.3516,0,U,53227,999,21277,.8431888E-5,.64E-6,0
STARLINK-4365,2022-084AR,2026-06-06T20:41:28.071744,15.05676437,.00013142,97.3951,217.3960,113.4991,246.6375,0,U,53228,999,21273,-.29255393E-3,-.4279E-4,0
STARLINK-4367,2022-084AS,2026-06-06T14:36:33.579072,15.05652661,.00020802,97.3978,218.1805,107.5213,252.6242,0,U,53229,999,21276,.21366998E-4,.25E-5,0
STARLINK-4364,2022-084AT,2026-06-06T20:27:27.668448,15.05681221,.00009648,97.3985,218.4680,95.9769,264.1568,0,U,53230,999,21280,-.31202294E-3,-.4561E-4,0
STARLINK-4370,2022-084AU,2026-06-06T22:19:06.644064,15.05658587,.00006064,97.3961,218.5048,97.5078,262.6219,0,U,53231,999,21281,-.23777126E-4,-.401E-5,0
STARLINK-4371,2022-084AV,2026-06-06T15:14:28.893696,15.05650970,.00020494,97.3965,217.0812,160.6524,199.4782,0,U,53232,999,21269,.56885565E-4,.763E-5,0
STARLINK-4372,2022-084AW,2026-06-06T23:00:57.551616,15.05713116,.00008529,97.3951,217.3977,99.1896,260.9428,0,U,53233,999,21274,.14065062E-3,.1976E-4,0
STARLINK-4368,2022-084AX,2026-06-06T22:00:03.000096,15.35372409,.00013304,97.5990,219.0024,112.6564,185.3012,0,U,53234,999,581,.20012286E-2,.69221E-3,0
STARLINK-4056,2022-086A,2026-06-06T17:31:41.413152,15.08790012,.0001309,53.1793,159.3518,123.4708,236.6409,0,U,53242,999,21475,-.17037121E-3,-.2995E-4,0
STARLINK-4047,2022-086B,2026-06-06T07:18:52.496064,15.08835299,.00012648,53.1734,165.9717,100.4172,259.6963,0,U,53243,999,21464,.13380606E-3,.1842E-4,0
STARLINK-4125,2022-086C,2026-06-06T17:28:20.107200,15.08806537,.00012748,53.1722,164.4576,98.2658,261.8478,0,U,53244,999,21468,.25709943E-3,.3803E-4,0
STARLINK-4131,2022-086E,2026-06-06T17:23:01.555584,15.08831238,.00011959,53.1717,164.3956,69.7925,290.3195,0,U,53246,999,21357,.25120143E-4,.112E-5,0
STARLINK-4061,2022-086F,2026-06-06T17:52:48.717120,15.08807689,.00002738,53.1762,159.4826,351.1925,8.9062,0,U,53247,999,21475,.82527156E-3,.1286E-3,0
STARLINK-4135,2022-086G,2026-06-06T17:36:56.363616,15.08843909,.00007725,53.1792,159.4492,122.4422,237.6645,0,U,53248,999,21475,.94211168E-4,.1212E-4,0
STARLINK-4128,2022-086H,2026-06-06T12:55:27.715008,15.08838359,.0000993,53.1737,155.2397,70.4397,289.6701,0,U,53249,999,21449,.39064E-4,.334E-5,0
STARLINK-4059,2022-086J,2026-06-06T06:37:50.206656,15.08830903,.00011522,53.1761,156.4096,90.0587,270.0537,0,U,53250,999,21444,-.17610144E-4,-.568E-5,0
STARLINK-4129,2022-086K,2026-06-06T17:29:40.581888,15.08857363,.00008777,53.1753,154.3746,91.7297,268.3795,0,U,53251,999,21450,-.10965355E-2,-.17705E-3,0
STARLINK-4132,2022-086L,2026-06-06T14:24:09.817632,15.08844039,.0001093,53.1715,154.9055,71.5542,288.5568,0,U,53252,999,21450,-.29754E-4,-.761E-5,0
STARLINK-4133,2022-086M,2026-06-06T17:24:20.842272,15.08836775,.00012691,53.1739,154.3908,84.6926,275.4210,0,U,53253,999,21450,-.9363297E-5,-.437E-5,0
STARLINK-4134,2022-086N,2026-06-06T06:28:37.339104,15.08835756,.00013465,53.1750,156.4470,84.7323,275.3822,0,U,53254,999,21445,.31659929E-4,.216E-5,0
STARLINK-4142,2022-086P,2026-06-06T17:13:45.238944,15.08832155,.00015233,53.1742,154.4244,69.7689,290.3466,0,U,53255,999,21450,.46275666E-3,.7083E-4,0
STARLINK-4147,2022-086Q,2026-06-06T17:19:03.129600,15.08818348,.0001143,53.1741,154.4069,80.7768,279.3353,0,U,53256,999,21450,.29362629E-3,.4386E-4,0
STARLINK-4144,2022-086R,2026-06-06T16:57:50.460192,15.08843873,.00011628,53.1797,154.4770,89.6505,270.4619,0,U,53257,999,21450,-.5621714E-4,-.1183E-4,0
STARLINK-4127,2022-086S,2026-06-06T17:08:26.730528,15.08839584,.0001166,53.1792,154.4343,78.3508,281.7615,0,U,53258,999,21450,.58525984E-4,.644E-5,0
